{
  "type": "FeatureCollection",
  "features": [
    {
      "type": "Feature",
      "properties": {
        "norad_id": 31773,
        "name": "FENGYUN 1C DEB",
        "group": "fengyun-1c-debris",
        "lat": 79.1828760759371,
        "lon": -135.49664334978056,
        "alt_km": 626.1354205910893,
        "timestamp": "2025-12-22T23:36:20.997441+00:00",
        "meta_object_name": "FENGYUN 1C DEB",
        "meta_object_id": "1999-025CFY",
        "meta_epoch": "2025-12-20T19:00:09.313344",
        "meta_mean_motion": 14.73014348,
        "meta_eccentricity": 0.00395484,
        "meta_inclination": 98.9495,
        "meta_ra_of_asc_node": 346.5259,
        "meta_arg_of_pericenter": 153.1663,
        "meta_mean_anomaly": 207.1599,
        "meta_ephemeris_type": 0,
        "meta_classification_type": "U",
        "meta_norad_cat_id": 31773,
        "meta_element_set_no": 999,
        "meta_rev_at_epoch": 65293,
        "meta_bstar": 0.0011554154,
        "meta_mean_motion_dot": 7.461e-05,
        "meta_mean_motion_ddot": 0,
        "tle_line1": "1 31773U 99025CFY 25354.79177446  .00007461  00000+0  11554-2 0  9995",
        "tle_line2": "2 31773  98.9495 346.5259 0039548 153.1663 207.1599 14.73014348652938"
      },
      "geometry": {
        "type": "Point",
        "coordinates": [
          -135.49664334978056,
          79.1828760759371
        ]
      }
    },
    {
      "type": "Feature",
      "properties": {
        "norad_id": 31776,
        "name": "FENGYUN 1C DEB",
        "group": "fengyun-1c-debris",
        "lat": -30.760508947283167,
        "lon": 62.41649961633217,
        "alt_km": 800.2218737264902,
        "timestamp": "2025-12-22T23:36:20.997452+00:00",
        "meta_object_name": "FENGYUN 1C DEB",
        "meta_object_id": "1999-025CGB",
        "meta_epoch": "2025-12-22T03:34:27.360192",
        "meta_mean_motion": 14.18599127,
        "meta_eccentricity": 0.00542431,
        "meta_inclination": 99.0724,
        "meta_ra_of_asc_node": 56.1061,
        "meta_arg_of_pericenter": 307.3827,
        "meta_mean_anomaly": 81.1299,
        "meta_ephemeris_type": 0,
        "meta_classification_type": "U",
        "meta_norad_cat_id": 31776,
        "meta_element_set_no": 999,
        "meta_rev_at_epoch": 95014,
        "meta_bstar": 0.0013053929,
        "meta_mean_motion_dot": 2.697e-05,
        "meta_mean_motion_ddot": 0,
        "tle_line1": "1 31776U 99025CGB 25356.14892778  .00002697  00000+0  13054-2 0  9994",
        "tle_line2": "2 31776  99.0724  56.1061 0054243 307.3827  81.1299 14.18599127950140"
      },
      "geometry": {
        "type": "Point",
        "coordinates": [
          62.41649961633217,
          -30.760508947283167
        ]
      }
    },
    {
      "type": "Feature",
      "properties": {
        "norad_id": 31779,
        "name": "FENGYUN 1C DEB",
        "group": "fengyun-1c-debris",
        "lat": 35.987045230339795,
        "lon": -88.97120079525445,
        "alt_km": 815.3099887274748,
        "timestamp": "2025-12-22T23:36:20.997462+00:00",
        "meta_object_name": "FENGYUN 1C DEB",
        "meta_object_id": "1999-025CGE",
        "meta_epoch": "2025-12-21T12:27:02.073600",
        "meta_mean_motion": 14.41614232,
        "meta_eccentricity": 0.0213652,
        "meta_inclination": 99.2993,
        "meta_ra_of_asc_node": 276.2677,
        "meta_arg_of_pericenter": 157.1459,
        "meta_mean_anomaly": 203.9412,
        "meta_ephemeris_type": 0,
        "meta_classification_type": "U",
        "meta_norad_cat_id": 31779,
        "meta_element_set_no": 999,
        "meta_rev_at_epoch": 97136,
        "meta_bstar": 0.00018166,
        "meta_mean_motion_dot": 7.15e-06,
        "meta_mean_motion_ddot": 0,
        "tle_line1": "1 31779U 99025CGE 25355.51877400  .00000715  00000+0  18166-3 0  9991",
        "tle_line2": "2 31779  99.2993 276.2677 0213652 157.1459 203.9412 14.41614232971363"
      },
      "geometry": {
        "type": "Point",
        "coordinates": [
          -88.97120079525445,
          35.987045230339795
        ]
      }
    },
    {
      "type": "Feature",
      "properties": {
        "norad_id": 31780,
        "name": "FENGYUN 1C DEB",
        "group": "fengyun-1c-debris",
        "lat": -51.76719958316918,
        "lon": 163.00033857333344,
        "alt_km": 639.6331042561242,
        "timestamp": "2025-12-22T23:36:20.997472+00:00",
        "meta_object_name": "FENGYUN 1C DEB",
        "meta_object_id": "1999-025CGF",
        "meta_epoch": "2025-12-19T09:14:08.893824",
        "meta_mean_motion": 14.69562649,
        "meta_eccentricity": 0.0150519,
        "meta_inclination": 99.2856,
        "meta_ra_of_asc_node": 146.9253,
        "meta_arg_of_pericenter": 32.9124,
        "meta_mean_anomaly": 328.1341,
        "meta_ephemeris_type": 0,
        "meta_classification_type": "U",
        "meta_norad_cat_id": 31780,
        "meta_element_set_no": 999,
        "meta_rev_at_epoch": 98595,
        "meta_bstar": 0.00017735,
        "meta_mean_motion_dot": 1.179e-05,
        "meta_mean_motion_ddot": 0,
        "tle_line1": "1 31780U 99025CGF 25353.38482516  .00001179  00000+0  17735-3 0  9992",
        "tle_line2": "2 31780  99.2856 146.9253 0150519  32.9124 328.1341 14.69562649985952"
      },
      "geometry": {
        "type": "Point",
        "coordinates": [
          163.00033857333344,
          -51.76719958316918
        ]
      }
    },
    {
      "type": "Feature",
      "properties": {
        "norad_id": 31781,
        "name": "FENGYUN 1C DEB",
        "group": "fengyun-1c-debris",
        "lat": 25.53129617711648,
        "lon": -6.900499321082719,
        "alt_km": 848.7668230010495,
        "timestamp": "2025-12-22T23:36:20.997482+00:00",
        "meta_object_name": "FENGYUN 1C DEB",
        "meta_object_id": "1999-025CGG",
        "meta_epoch": "2025-12-21T17:58:10.718688",
        "meta_mean_motion": 14.13089707,
        "meta_eccentricity": 0.02036323,
        "meta_inclination": 99.4977,
        "meta_ra_of_asc_node": 167.2029,
        "meta_arg_of_pericenter": 248.9414,
        "meta_mean_anomaly": 108.9873,
        "meta_ephemeris_type": 0,
        "meta_classification_type": "U",
        "meta_norad_cat_id": 31781,
        "meta_element_set_no": 999,
        "meta_rev_at_epoch": 68475,
        "meta_bstar": 0.002913809,
        "meta_mean_motion_dot": 6.584e-05,
        "meta_mean_motion_ddot": 0,
        "tle_line1": "1 31781U 99025CGG 25355.74873517  .00006584  00000+0  29138-2 0  9994",
        "tle_line2": "2 31781  99.4977 167.2029 0203632 248.9414 108.9873 14.13089707684758"
      },
      "geometry": {
        "type": "Point",
        "coordinates": [
          -6.900499321082719,
          25.53129617711648
        ]
      }
    },
    {
      "type": "Feature",
      "properties": {
        "norad_id": 31782,
        "name": "FENGYUN 1C DEB",
        "group": "fengyun-1c-debris",
        "lat": 31.66555937811432,
        "lon": 152.96581343842658,
        "alt_km": 745.1572229174035,
        "timestamp": "2025-12-22T23:36:20.997492+00:00",
        "meta_object_name": "FENGYUN 1C DEB",
        "meta_object_id": "1999-025CGH",
        "meta_epoch": "2025-12-21T17:25:53.971968",
        "meta_mean_motion": 14.36252255,
        "meta_eccentricity": 0.00791408,
        "meta_inclination": 98.9044,
        "meta_ra_of_asc_node": 157.216,
        "meta_arg_of_pericenter": 330.4598,
        "meta_mean_anomaly": 43.9449,
        "meta_ephemeris_type": 0,
        "meta_classification_type": "U",
        "meta_norad_cat_id": 31782,
        "meta_element_set_no": 999,
        "meta_rev_at_epoch": 96820,
        "meta_bstar": 0.00029283095,
        "meta_mean_motion_dot": 8.38e-06,
        "meta_mean_motion_ddot": 0,
        "tle_line1": "1 31782U 99025CGH 25355.72631912  .00000838  00000+0  29283-3 0  9992",
        "tle_line2": "2 31782  98.9044 157.2160 0079140 330.4598  43.9449 14.36252255968205"
      },
      "geometry": {
        "type": "Point",
        "coordinates": [
          152.96581343842658,
          31.66555937811432
        ]
      }
    },
    {
      "type": "Feature",
      "properties": {
        "norad_id": 31783,
        "name": "FENGYUN 1C DEB",
        "group": "fengyun-1c-debris",
        "lat": -0.11336792824503594,
        "lon": 5.196478667200715,
        "alt_km": 795.8608393130571,
        "timestamp": "2025-12-22T23:36:20.997502+00:00",
        "meta_object_name": "FENGYUN 1C DEB",
        "meta_object_id": "1999-025CGJ",
        "meta_epoch": "2025-12-20T06:53:25.982592",
        "meta_mean_motion": 14.08842598,
        "meta_eccentricity": 0.01039748,
        "meta_inclination": 98.6049,
        "meta_ra_of_asc_node": 2.6048,
        "meta_arg_of_pericenter": 28.7009,
        "meta_mean_anomaly": 343.3126,
        "meta_ephemeris_type": 0,
        "meta_classification_type": "U",
        "meta_norad_cat_id": 31783,
        "meta_element_set_no": 999,
        "meta_rev_at_epoch": 89327,
        "meta_bstar": 0.00037929066,
        "meta_mean_motion_dot": 6.47e-06,
        "meta_mean_motion_ddot": 0,
        "tle_line1": "1 31783U 99025CGJ 25354.28710628  .00000647  00000+0  37929-3 0  9999",
        "tle_line2": "2 31783  98.6049   2.6048 0103974  28.7009 343.3126 14.08842598893270"
      },
      "geometry": {
        "type": "Point",
        "coordinates": [
          5.196478667200715,
          -0.11336792824503594
        ]
      }
    }
  ]
}